{
  "61726": {
    "noradId": "61726",
    "tle": [
      "1 61726C 24196V   25330.80256944  .00010235  00000+0  34487-3 0  3303",
      "2 61726  53.1580 219.3048 0001329  81.4010 263.7524 15.30188669    19"
    ]
  },
  "61727": {
    "noradId": "61727",
    "tle": [
      "1 61727C 24196W   25330.79701389 -.00003145  00000+0 -10598-3 0  3301",
      "2 61727  53.1571 219.2608 0001258  92.4300 257.0102 15.30197786    14"
    ]
  },
  "61728": {
    "noradId": "61728",
    "tle": [
      "1 61728C 24196X   25330.80048611  .00016663  00000+0  56152-3 0  3309",
      "2 61728  53.1570 219.1743 0001186  90.7052 312.7677 15.30180336    17"
    ]
  },
  "61729": {
    "noradId": "61729",
    "tle": [
      "1 61729C 24196Y   25330.80395833 -.00004194  00000+0 -14134-3 0  3303",
      "2 61729  53.1570 219.1934 0001283  93.6160 311.5496 15.30197039    14"
    ]
  },
  "61845": {
    "noradId": "61845",
    "tle": [
      "1 61845C 24202A   25330.80187500  .00025296  00000+0  91623-3 0  3302",
      "2 61845  43.0003  87.8144 0001489 275.0798  30.9315 15.27552614    18"
    ]
  },
  "61846": {
    "noradId": "61846",
    "tle": [
      "1 61846C 24202B   25330.79840278  .00027762  00000+0  10059-2 0  3302",
      "2 61846  43.0031  88.3614 0001547 266.6523 160.9514 15.27536971    18"
    ]
  },
  "61847": {
    "noradId": "61847",
    "tle": [
      "1 61847C 24202C   25330.80118056  .00026351  00000+0  95443-3 0  3301",
      "2 61847  43.0010  87.7492 0001489 271.9116  58.5769 15.27552001    11"
    ]
  },
  "61848": {
    "noradId": "61848",
    "tle": [
      "1 61848C 24202D   25330.79770833  .00028434  00000+0  10297-2 0  3304",
      "2 61848  42.9994  87.9726 0001475 278.5344 307.9357 15.27555988    15"
    ]
  },
  "61849": {
    "noradId": "61849",
    "tle": [
      "1 61849C 24202E   25330.80256944  .00028365  00000+0  10269-2 0  3301",
      "2 61849  42.9995  87.9952 0001300 258.9225 333.0095 15.27565330    16"
    ]
  },
  "61850": {
    "noradId": "61850",
    "tle": [
      "1 61850C 24202F   25330.79770833  .00024239  00000+0  87800-3 0  3301",
      "2 61850  42.9994  98.7112 0001513 273.9029 164.9212 15.27552247    15"
    ]
  },
  "61851": {
    "noradId": "61851",
    "tle": [
      "1 61851C 24202G   25330.79631944  .00033652  00000+0  12198-2 0  3307",
      "2 61851  43.0014  87.7242 0001756 270.3054  54.5987 15.27520567    14"
    ]
  },
  "61852": {
    "noradId": "61852",
    "tle": [
      "1 61852C 24202H   25330.80048611  .00018136  00000+0  65716-3 0  3308",
      "2 61852  42.9990  98.7458 0001470 265.8337 167.0917 15.27546853    12"
    ]
  },
  "61853": {
    "noradId": "61853",
    "tle": [
      "1 61853C 24202J   25330.80048611  .00022567  00000+0  81741-3 0  3308",
      "2 61853  42.9989  98.7792 0001447 274.6935 144.0489 15.27553867    10"
    ]
  },
  "61854": {
    "noradId": "61854",
    "tle": [
      "1 61854C 24202K   25330.80048611  .00022642  00000+0  82014-3 0  3307",
      "2 61854  42.9992  98.8302 0001437 277.6952 119.8316 15.27553593    19"
    ]
  },
  "61855": {
    "noradId": "61855",
    "tle": [
      "1 61855C 24202L   25330.79979167  .00021122  00000+0  76509-3 0  3309",
      "2 61855  42.9997  98.8867 0001175 271.9841 100.4952 15.27555059    15"
    ]
  },
  "61856": {
    "noradId": "61856",
    "tle": [
      "1 61856C 24202M   25330.79909722  .00033931  00000+0  12284-2 0  3300",
      "2 61856  43.0009  98.9430 0001326 303.7474  43.5496 15.27560113    10"
    ]
  },
  "61857": {
    "noradId": "61857",
    "tle": [
      "1 61857C 24202N   25330.79909722 -.00043316  00000+0 -15686-2 0  3300",
      "2 61857  43.0022  99.0451 0001426 274.1057  30.8586 15.27627031    12"
    ]
  },
  "61858": {
    "noradId": "61858",
    "tle": [
      "1 61858C 24202P   25330.80048611  .00017494  00000+0  63395-3 0  3301",
      "2 61858  43.0015  98.9863 0001372 267.7798  66.1202 15.27543677    10"
    ]
  },
  "61859": {
    "noradId": "61859",
    "tle": [
      "1 61859C 24202Q   25330.80326389  .00022651  00000+0  82042-3 0  3304",
      "2 61859  43.0026  99.0539 0001455 275.2288  38.5335 15.27556718    15"
    ]
  },
  "61860": {
    "noradId": "61860",
    "tle": [
      "1 61860C 24202R   25330.79840278  .00018352  00000+0  66495-3 0  3309",
      "2 61860  43.0016  95.4058 0001488 266.2475 110.0855 15.27548236    15"
    ]
  },
  "61861": {
    "noradId": "61861",
    "tle": [
      "1 61861C 24202S   25330.80118056  .00019854  00000+0  71941-3 0  3304",
      "2 61861  43.0030  99.1617 0001545 267.2918 352.5887 15.27544193    17"
    ]
  },
  "61862": {
    "noradId": "61862",
    "tle": [
      "1 61862C 24202T   25330.80326389  .00022046  00000+0  79849-3 0  3307",
      "2 61862  43.0033  99.1023 0001530 276.9251  15.6112 15.27556561    13"
    ]
  },
  "61863": {
    "noradId": "61863",
    "tle": [
      "1 61863C 24202U   25330.80256944  .00024159  00000+0  87517-3 0  3305",
      "2 61863  43.0028  99.2549 0001444 268.2135 316.8521 15.27548971    17"
    ]
  },
  "61864": {
    "noradId": "61864",
    "tle": [
      "1 61864C 24202V   25330.80118056  .00022125  00000+0  80132-3 0  3304",
      "2 61864  43.0016  99.3478 0001565 275.3584 266.6680 15.27557351    18"
    ]
  },
  "61865": {
    "noradId": "61865",
    "tle": [
      "1 61865C 24202W   25330.80118056  .00022440  00000+0  81286-3 0  3306",
      "2 61865  43.0011  99.3976 0001926 281.3599 239.4476 15.27551531    16"
    ]
  },
  "61866": {
    "noradId": "61866",
    "tle": [
      "1 61866C 24202X   25330.80118056  .00011641  00000+0  42175-3 0  3302",
      "2 61866  43.0019  99.3134 0001611 290.1751 266.0292 15.27556679    10"
    ]
  },
  "61867": {
    "noradId": "61867",
    "tle": [
      "1 61867C 24202Y   25330.79840278  .00020683  00000+0  74915-3 0  3302",
      "2 61867  43.0005  99.4642 0001536 274.8084 209.4764 15.27557472    12"
    ]
  },
  "61874": {
    "noradId": "61874",
    "tle": [
      "1 61874C 24204A   25330.82687500 -.00004685  00000+0 -38593-4 0  3302",
      "2 61874  53.1570 143.7065 0001042  94.0397 286.2542 15.69714095    11"
    ]
  },
  "61875": {
    "noradId": "61875",
    "tle": [
      "1 61875C 24204B   25330.82618056 -.00003155  00000+0 -25995-4 0  3306",
      "2 61875  53.1567 143.0108 0001025  94.4591 254.7729 15.69709795    18"
    ]
  },
  "61876": {
    "noradId": "61876",
    "tle": [
      "1 61876C 24204C   25330.83104167  .00097858  00000+0  79210-3 0  3300",
      "2 61876  53.1571 143.6066 0001232  46.5896  26.0684 15.70032707    13"
    ]
  },
  "61877": {
    "noradId": "61877",
    "tle": [
      "1 61877C 24204D   25330.82340278 -.00006052  00000+0 -49860-4 0  3302",
      "2 61877  53.1569 143.5891 0001132 102.8677 313.2874 15.69713253    10"
    ]
  },
  "61878": {
    "noradId": "61878",
    "tle": [
      "1 61878C 24204E   25330.82826389 -.00010136  00000+0 -83488-4 0  3307",
      "2 61878  53.1566 143.5082 0001214  86.0136  25.3575 15.69719761    13"
    ]
  },
  "61879": {
    "noradId": "61879",
    "tle": [
      "1 61879C 24204F   25330.83034722 -.00004349  00000+0 -35828-4 0  3305",
      "2 61879  53.1564 143.4407 0001006 100.9446  49.9483 15.69712010    11"
    ]
  },
  "61880": {
    "noradId": "61880",
    "tle": [
      "1 61880C 24204G   25330.82687500 -.00008243  00000+0 -67908-4 0  3305",
      "2 61880  53.1563 143.4007 0001135  92.5767  66.4264 15.69714403    12"
    ]
  },
  "61881": {
    "noradId": "61881",
    "tle": [
      "1 61881C 24204H   25330.82687500 -.00004832  00000+0 -39804-4 0  3300",
      "2 61881  53.1564 143.3436 0001073  78.6180 108.1143 15.69713563    10"
    ]
  },
  "61882": {
    "noradId": "61882",
    "tle": [
      "1 61882C 24204J   25330.82687500 -.00002539  00000+0 -20916-4 0  3307",
      "2 61882  53.1567 143.2866 0001145 103.8871 110.5940 15.69707617    13"
    ]
  },
  "61883": {
    "noradId": "61883",
    "tle": [
      "1 61883C 24204K   25330.82756944 -.00006302  00000+0 -51911-4 0  3308",
      "2 61883  53.1569 143.1689 0001130  85.9984 187.8706 15.69715817    15"
    ]
  },
  "61884": {
    "noradId": "61884",
    "tle": [
      "1 61884C 24204L   25330.82756944  .00003381  00000+0  27857-4 0  3303",
      "2 61884  53.1568 143.2260 0001092  99.6838 146.4665 15.69700475    17"
    ]
  },
  "61885": {
    "noradId": "61885",
    "tle": [
      "1 61885C 24204M   25330.82687500 -.00005046  00000+0 -41563-4 0  3307",
      "2 61885  53.1568 143.1150 0001046  79.6603 218.0194 15.69714213    10"
    ]
  },
  "61886": {
    "noradId": "61886",
    "tle": [
      "1 61886C 24204N   25330.82479167 -.00010836  00000+0 -89284-4 0  3301",
      "2 61886  53.1567 143.0680 0001246  92.4954 221.1599 15.69713549    16"
    ]
  },
  "61887": {
    "noradId": "61887",
    "tle": [
      "1 61887C 24204P   25330.80048611 -.00014805  00000+0 -49897-3 0  3301",
      "2 61887  53.1580 244.9428 0001103  96.9862 329.2472 15.30208490    14"
    ]
  },
  "61888": {
    "noradId": "61888",
    "tle": [
      "1 61888C 24204Q   25330.80048611 -.00026690  00000+0 -89928-3 0  3306",
      "2 61888  53.1587 244.8587 0001348  91.1402  15.7919 15.30227848    16"
    ]
  },
  "61889": {
    "noradId": "61889",
    "tle": [
      "1 61889C 24204R   25330.79770833 -.00006005  00000+0 -20237-3 0  3309",
      "2 61889  53.1573 245.0564 0001230  80.0986 278.4741 15.30202213    14"
    ]
  },
  "61890": {
    "noradId": "61890",
    "tle": [
      "1 61890C 24204S   25330.80326389 -.00009441  00000+0 -31813-3 0  3305",
      "2 61890  53.1585 245.2020 0001215  95.4861 206.4605 15.30206707    15"
    ]
  },
  "61891": {
    "noradId": "61891",
    "tle": [
      "1 61891C 24204T   25330.79770833 -.00018702  00000+0 -63006-3 0  3300",
      "2 61891  53.1577 245.1576 0001088 110.8482 195.3503 15.30223128    10"
    ]
  }
}